*******************************************************************************
 Revised: September 28, 2017           Jupiter                              599
 
 PHYSICAL DATA (updated 2018-Aug-15):
  Mass x10^24 (kg)      = 1898.13+-.19    Density (g/cm^3)       =   1.326
  Equat. radius (1 bar) = 71492+-4 km     Polar radius (km)      =  66854+-10
  Vol. Mean Radius (km) = 69911+-6        Flattening             =   0.06487
  Geometric Albedo      = 0.52            Rocky core mass (Mc/M) =  0.0261
  Sid. rot. period (III)= 9h 55m 29.71 s  Sid. rot. rate (rad/s) =  0.00017585 
  Mean solar day, hrs   = ~9.9259         
  GM (km^3/s^2)         = 126686534.911   GM 1-sigma (km^3/s^2)  =  +-1.5
  Equ. grav, ge (m/s^2) = 24.79           Pol. grav, gp (m/s^2)  =  28.34
  Vis. magnitude V(1,0) = -9.40
  Vis. mag. (opposition)= -2.70           Obliquity to orbit     =  3.13 deg
  Sidereal orbit period = 11.861982204 y  Sidereal orbit period  = 4332.589 d
  Mean daily motion     = 0.0831294 deg/d Mean orbit speed, km/s = 13.0697
  Atmos. temp. (1 bar)  = 165+-5 K        Escape speed, km/s    =  59.5           
  A_roche(ice)/Rp       =  2.76           Hill's sphere rad. Rp  = 740
                                 Perihelion   Aphelion     Mean
  Solar Constant (W/m^2)         56           46           51
  Maximum Planetary IR (W/m^2)   13.7         13.4         13.6
  Minimum Planetary IR (W/m^2)   13.7         13.4         13.6
*******************************************************************************
 
 
*******************************************************************************
Ephemeris / WWW_USER Thu Nov 14 06:41:52 2019 Pasadena, USA      / Horizons    
*******************************************************************************
Target body name: Jupiter (599)                   {source: jup341}
Center body name: Earth (399)                     {source: DE431mx}
Center-site name: GEOCENTRIC
*******************************************************************************
Start time      : A.D. 2019-May-28 00:00:00.0000 UT      
Stop  time      : A.D. 2019-May-30 00:00:00.0000 UT      
Step-size       : 5 minutes
*******************************************************************************
Target pole/equ : IAU_JUPITER                     {West-longitude positive}
Target radii    : 71492.0 x 71492.0 x 66854.0 km  {Equator, meridian, pole}    
Center geodetic : 0.00000000,0.00000000,0.0000000 {E-lon(deg),Lat(deg),Alt(km)}
Center cylindric: 0.00000000,0.00000000,0.0000000 {E-lon(deg),Dxy(km),Dz(km)}
Center pole/equ : High-precision EOP model        {East-longitude positive}
Center radii    : 6378.1 x 6378.1 x 6356.8 km     {Equator, meridian, pole}    
Target primary  : Sun
Vis. interferer : MOON (R_eq= 1737.400) km        {source: DE431mx}
Rel. light bend : Sun, EARTH                      {source: DE431mx}
Rel. lght bnd GM: 1.3271E+11, 3.9860E+05 km^3/s^2                              
Atmos refraction: NO (AIRLESS)
RA format       : DEG
Time format     : CAL 
EOP file        : eop.191113.p200204                                           
EOP coverage    : DATA-BASED 1962-JAN-20 TO 2019-NOV-13. PREDICTS-> 2020-FEB-03
Units conversion: 1 au= 149597870.700 km, c= 299792.458 km/s, 1 day= 86400.0 s 
Table cut-offs 1: Elevation (-90.0deg=NO ),Airmass (>38.000=NO), Daylight (NO )
Table cut-offs 2: Solar elongation (  0.0,180.0=NO ),Local Hour Angle( 0.0=NO )
Table cut-offs 3: RA/DEC angular rate (     0.0=NO )                           
**************************************************************************************************************************************
 Date__(UT)__HR:MN:SC.fff     R.A._(ICRF/J2K)_DEC Ang-diam Ob-lon Ob-lat Sl-lon Sl-lat   NP.ang   NP.dist            delta      deldot
**************************************************************************************************************************************
$$SOE
 2019-May-29 12:40:00.000     259.95408 -22.50910 45.72645 164.81  -3.16 167.30  -3.06   3.3677    -21.35 4.31141336853214  -6.9779903
 2019-May-29 12:45:00.000     259.95363 -22.50908 45.72660 167.83  -3.16 170.32  -3.06   3.3679    -21.35 4.31139937678419  -6.9762468
 2019-May-29 12:50:00.000     259.95317 -22.50905 45.72675 170.85  -3.16 173.34  -3.06   3.3681    -21.35 4.31138538853278  -6.9745031
 2019-May-29 12:55:00.000     259.95272 -22.50903 45.72690 173.88  -3.16 176.37  -3.06   3.3683    -21.35 4.31137140377825  -6.9727593
 2019-May-29 13:00:00.000     259.95227 -22.50901 45.72704 176.90  -3.16 179.39  -3.06   3.3685    -21.35 4.31135742252096  -6.9710153
 2019-May-29 13:05:00.000     259.95181 -22.50898 45.72719 179.92  -3.16 182.41  -3.06   3.3687    -21.35 4.31134344476122  -6.9692711
 2019-May-29 13:10:00.000     259.95136 -22.50896 45.72734 182.95  -3.16 185.43  -3.06   3.3689    -21.35 4.31132947049940  -6.9675267
 2019-May-29 13:15:00.000     259.95091 -22.50894 45.72749 185.97  -3.16 188.46  -3.06   3.3691    -21.35 4.31131549973583  -6.9657822
 2019-May-29 13:20:00.000     259.95045 -22.50891 45.72764 188.99  -3.16 191.48  -3.06   3.3693    -21.35 4.31130153247083  -6.9640375
 2019-May-29 13:25:00.000     259.95000 -22.50889 45.72779 192.02  -3.16 194.50  -3.06   3.3695    -21.35 4.31128756870476  -6.9622927
 2019-May-29 13:30:00.000     259.94955 -22.50886 45.72793 195.04  -3.16 197.52  -3.06   3.3697    -21.35 4.31127360843795  -6.9605476
 2019-May-29 13:35:00.000     259.94909 -22.50884 45.72808 198.06  -3.16 200.55  -3.06   3.3699    -21.35 4.31125965167072  -6.9588025
 2019-May-29 13:40:00.000     259.94864 -22.50882 45.72823 201.09  -3.16 203.57  -3.06   3.3701    -21.35 4.31124569840342  -6.9570571
 2019-May-29 13:45:00.000     259.94819 -22.50879 45.72838 204.11  -3.16 206.59  -3.06   3.3703    -21.35 4.31123174863638  -6.9553116
 2019-May-29 13:50:00.000     259.94773 -22.50877 45.72853 207.13  -3.16 209.61  -3.06   3.3705    -21.35 4.31121780236991  -6.9535659
 2019-May-29 13:55:00.000     259.94728 -22.50875 45.72867 210.16  -3.16 212.64  -3.06   3.3707    -21.35 4.31120385960436  -6.9518200
 2019-May-29 14:00:00.000     259.94682 -22.50872 45.72882 213.18  -3.16 215.66  -3.06   3.3708    -21.35 4.31118992034005  -6.9500740
 2019-May-29 14:05:00.000     259.94637 -22.50870 45.72897 216.20  -3.16 218.68  -3.06   3.3710    -21.35 4.31117598457729  -6.9483279
 2019-May-29 14:10:00.000     259.94592 -22.50867 45.72912 219.23  -3.16 221.70  -3.06   3.3712    -21.35 4.31116205231643  -6.9465815
 2019-May-29 14:15:00.000     259.94546 -22.50865 45.72926 222.25  -3.16 224.73  -3.06   3.3714    -21.35 4.31114812355777  -6.9448350
 2019-May-29 14:20:00.000     259.94501 -22.50863 45.72941 225.27  -3.16 227.75  -3.06   3.3716    -21.35 4.31113419830164  -6.9430884
 2019-May-29 14:25:00.000     259.94456 -22.50860 45.72956 228.30  -3.16 230.77  -3.06   3.3718    -21.35 4.31112027654836  -6.9413416
 2019-May-29 14:30:00.000     259.94410 -22.50858 45.72971 231.32  -3.16 233.79  -3.06   3.3720    -21.35 4.31110635829824  -6.9395946
 2019-May-29 14:35:00.000     259.94365 -22.50856 45.72986 234.34  -3.16 236.82  -3.06   3.3722    -21.35 4.31109244355160  -6.9378475
 2019-May-29 14:40:00.000     259.94319 -22.50853 45.73000 237.37  -3.16 239.84  -3.06   3.3724    -21.35 4.31107853230875  -6.9361002
 2019-May-29 14:45:00.000     259.94274 -22.50851 45.73015 240.39  -3.16 242.86  -3.06   3.3726    -21.35 4.31106462457001  -6.9343528
 2019-May-29 14:50:00.000     259.94229 -22.50848 45.73030 243.41  -3.16 245.88  -3.06   3.3728    -21.35 4.31105072033567  -6.9326052
 2019-May-29 14:55:00.000     259.94183 -22.50846 45.73045 246.43  -3.16 248.91  -3.06   3.3730    -21.35 4.31103681960606  -6.9308574
 2019-May-29 15:00:00.000     259.94138 -22.50844 45.73059 249.46  -3.16 251.93  -3.06   3.3732    -21.35 4.31102292238147  -6.9291095
 2019-May-29 15:05:00.000     259.94092 -22.50841 45.73074 252.48  -3.16 254.95  -3.06   3.3734    -21.35 4.31100902866221  -6.9273615
 2019-May-29 15:10:00.000     259.94047 -22.50839 45.73089 255.50  -3.16 257.97  -3.06   3.3736    -21.35 4.31099513844858  -6.9256133
 2019-May-29 15:15:00.000     259.94002 -22.50836 45.73103 258.53  -3.16 261.00  -3.06   3.3738    -21.35 4.31098125174089  -6.9238650
 2019-May-29 15:20:00.000     259.93956 -22.50834 45.73118 261.55  -3.16 264.02  -3.06   3.3740    -21.35 4.31096736853941  -6.9221165
 2019-May-29 15:25:00.000     259.93911 -22.50832 45.73133 264.57  -3.16 267.04  -3.05   3.3741    -21.35 4.31095348884446  -6.9203678
 2019-May-29 15:30:00.000     259.93865 -22.50829 45.73148 267.60  -3.16 270.06  -3.05   3.3743    -21.35 4.31093961265633  -6.9186190
 2019-May-29 15:35:00.000     259.93820 -22.50827 45.73162 270.62  -3.16 273.09  -3.05   3.3745    -21.35 4.31092573997530  -6.9168701
 2019-May-29 15:40:00.000     259.93775 -22.50825 45.73177 273.64  -3.16 276.11  -3.05   3.3747    -21.35 4.31091187080167  -6.9151210
 2019-May-29 15:45:00.000     259.93729 -22.50822 45.73192 276.67  -3.16 279.13  -3.05   3.3749    -21.35 4.31089800513572  -6.9133718
 2019-May-29 15:50:00.000     259.93684 -22.50820 45.73207 279.69  -3.16 282.15  -3.05   3.3751    -21.35 4.31088414297773  -6.9116225
 2019-May-29 15:55:00.000     259.93638 -22.50817 45.73221 282.71  -3.16 285.18  -3.05   3.3753    -21.35 4.31087028432800  -6.9098730
 2019-May-29 16:00:00.000     259.93593 -22.50815 45.73236 285.74  -3.16 288.20  -3.05   3.3755    -21.35 4.31085642918679  -6.9081234
 2019-May-29 16:05:00.000     259.93548 -22.50813 45.73251 288.76  -3.16 291.22  -3.05   3.3757    -21.35 4.31084257755439  -6.9063736
 2019-May-29 16:10:00.000     259.93502 -22.50810 45.73265 291.78  -3.16 294.24  -3.05   3.3759    -21.35 4.31082872943107  -6.9046237
 2019-May-29 16:15:00.000     259.93457 -22.50808 45.73280 294.81  -3.16 297.27  -3.05   3.3761    -21.35 4.31081488481710  -6.9028736
